KUIPER-00027            
1 63740U 25088S   26195.48146584 -.00000699  00000+0 -62701-4 0  9991
2 63740  51.9017 254.9265 0000421  91.1301 268.9710 14.79931969 66395
KUIPER-00028            
1 63741U 25088T   26195.45039223  .00000443  00000+0  87073-4 0  9994
2 63741  51.8996 252.5146 0000440  90.4745 269.6268 14.79926325 66833
KUIPER-00029            
1 63742U 25088U   26195.62902175  .00001130  00000+0  17715-3 0  9998
2 63742  51.8999 250.4110 0000297 305.6214  54.4720 14.79931058 66402
KUIPER-00030            
1 63743U 25088V   26195.46527774  .00000479  00000+0  91777-4 0  9995
2 63743  51.9015 269.9583 0000323 102.0077 258.0921 14.79932846 66409
KUIPER-00031            
1 63744U 25088W   26195.43480789  .00001291  00000+0  21397-3 0  9990
2 63744  51.9014 254.9849 0001848 211.0689 149.0163 14.76555144 66328
KUIPER-00032            
1 63745U 25088X   26195.92613550  .00008290  00000+0  20782-3 0  9992
2 63745  51.8676 127.1963 0002999 202.5990 157.4867 15.40927692 69148
KUIPER-00033            
1 63746U 25088Y   26195.55038340 -.00000066  00000+0  20281-4 0  9999
2 63746  51.9008 284.6047 0000441 120.0921 240.0085 14.79938833 66406
KUIPER-00034            
1 63747U 25088Z   26195.52332358 -.00000125  00000+0  12556-4 0  9995
2 63747  51.9007 247.2574 0000536  71.8929 288.2092 14.79923682 66602
KUIPER-00035            
1 63748U 25088AA  26195.49635243  .00000530  00000+0  98514-4 0  9998
2 63748  51.9003 272.3509 0000366  98.8938 261.2066 14.79932644 66303
KUIPER-00037            
1 63749U 25088AB  26195.48927623 -.00000849  00000+0 -82453-4 0  9994
2 63749  51.9019 271.2403 0000339 104.3009 255.7991 14.79931778 67105
KUIPER-00038            
1 63750U 25088AC  26195.54629539  .00000540  00000+0  99811-4 0  9990
2 63750  51.9013 257.1534 0000336  82.1039 277.9961 14.79941173 66306
KUIPER-00039            
1 64500U 25134A   26195.85651567  .00001771  00000+0  26122-3 0  9997
2 64500  51.9035  30.7775 0000828 127.6086 232.4952 14.79933108 58901
KUIPER-00040            
1 64501U 25134B   26195.94703352  .00001805  00000+0  26572-3 0  9995
2 64501  51.9001  40.4570 0000821 128.0887 232.0150 14.79934170 58774
KUIPER-00041            
1 64502U 25134C   26195.77549251  .00001621  00000+0  24155-3 0  9994
2 64502  51.9014  43.6008 0000749 109.2719 250.8325 14.79936081 58713
KUIPER-00042            
1 64503U 25134D   26195.74712377  .00001682  00000+0  24955-3 0  9998
2 64503  51.9001  38.7049 0000826 106.7268 253.3785 14.79929564 58780
KUIPER-00043            
1 64504U 25134E   26195.75520719  .00001595  00000+0  23814-3 0  9993
2 64504  51.9029  31.1670 0000815 124.3811 235.7229 14.79936726 58893
