{"fetched_at":"2026-07-15T06:35:30.786Z","source":"https://celestrak.org/NORAD/elements/gp.php?GROUP=kuiper&FORMAT=JSON","constellation":"kuiper","records":[{"OBJECT_NAME":"KUIPER-00027","OBJECT_ID":"2025-088S","EPOCH":"2026-07-14T11:33:18.648576","CLASSIFICATION_TYPE":"U","MEAN_MOTION":14.79931969,"ECCENTRICITY":0.00004214,"INCLINATION":51.9017,"RA_OF_ASC_NODE":254.9265,"ARG_OF_PERICENTER":91.1301,"MEAN_ANOMALY":268.971,"EPHEMERIS_TYPE":0,"NORAD_CAT_ID":63740,"ELEMENT_SET_NO":999,"REV_AT_EPOCH":6639,"BSTAR":-0.000062700699,"MEAN_MOTION_DOT":-0.00000699,"MEAN_MOTION_DDOT":0},{"OBJECT_NAME":"KUIPER-00028","OBJECT_ID":"2025-088T","EPOCH":"2026-07-14T10:48:33.888672","CLASSIFICATION_TYPE":"U","MEAN_MOTION":14.79926325,"ECCENTRICITY":0.00004405,"INCLINATION":51.8996,"RA_OF_ASC_NODE":252.5146,"ARG_OF_PERICENTER":90.4745,"MEAN_ANOMALY":269.6268,"EPHEMERIS_TYPE":0,"NORAD_CAT_ID":63741,"ELEMENT_SET_NO":999,"REV_AT_EPOCH":6683,"BSTAR":0.000087072932,"MEAN_MOTION_DOT":0.00000443,"MEAN_MOTION_DDOT":0},{"OBJECT_NAME":"KUIPER-00029","OBJECT_ID":"2025-088U","EPOCH":"2026-07-14T15:05:47.479200","CLASSIFICATION_TYPE":"U","MEAN_MOTION":14.79931058,"ECCENTRICITY":0.00002977,"INCLINATION":51.8999,"RA_OF_ASC_NODE":250.411,"ARG_OF_PERICENTER":305.6214,"MEAN_ANOMALY":54.472,"EPHEMERIS_TYPE":0,"NORAD_CAT_ID":63742,"ELEMENT_SET_NO":999,"REV_AT_EPOCH":6640,"BSTAR":0.00017715292,"MEAN_MOTION_DOT":0.0000113,"MEAN_MOTION_DDOT":0},{"OBJECT_NAME":"KUIPER-00030","OBJECT_ID":"2025-088V","EPOCH":"2026-07-14T11:09:59.996736","CLASSIFICATION_TYPE":"U","MEAN_MOTION":14.79932846,"ECCENTRICITY":0.0000323,"INCLINATION":51.9015,"RA_OF_ASC_NODE":269.9583,"ARG_OF_PERICENTER":102.0077,"MEAN_ANOMALY":258.0921,"EPHEMERIS_TYPE":0,"NORAD_CAT_ID":63743,"ELEMENT_SET_NO":999,"REV_AT_EPOCH":6640,"BSTAR":0.000091777086,"MEAN_MOTION_DOT":0.00000479,"MEAN_MOTION_DDOT":0},{"OBJECT_NAME":"KUIPER-00031","OBJECT_ID":"2025-088W","EPOCH":"2026-07-14T10:26:07.401696","CLASSIFICATION_TYPE":"U","MEAN_MOTION":14.76555144,"ECCENTRICITY":0.00018484,"INCLINATION":51.9014,"RA_OF_ASC_NODE":254.9849,"ARG_OF_PERICENTER":211.0689,"MEAN_ANOMALY":149.0163,"EPHEMERIS_TYPE":0,"NORAD_CAT_ID":63744,"ELEMENT_SET_NO":999,"REV_AT_EPOCH":6632,"BSTAR":0.00021396699,"MEAN_MOTION_DOT":0.00001291,"MEAN_MOTION_DDOT":0},{"OBJECT_NAME":"KUIPER-00032","OBJECT_ID":"2025-088X","EPOCH":"2026-07-14T22:13:38.107200","CLASSIFICATION_TYPE":"U","MEAN_MOTION":15.40927692,"ECCENTRICITY":0.0002999,"INCLINATION":51.8676,"RA_OF_ASC_NODE":127.1963,"ARG_OF_PERICENTER":202.599,"MEAN_ANOMALY":157.4867,"EPHEMERIS_TYPE":0,"NORAD_CAT_ID":63745,"ELEMENT_SET_NO":999,"REV_AT_EPOCH":6914,"BSTAR":0.00020781572,"MEAN_MOTION_DOT":0.0000829,"MEAN_MOTION_DDOT":0},{"OBJECT_NAME":"KUIPER-00033","OBJECT_ID":"2025-088Y","EPOCH":"2026-07-14T13:12:33.125760","CLASSIFICATION_TYPE":"U","MEAN_MOTION":14.79938833,"ECCENTRICITY":0.00004411,"INCLINATION":51.9008,"RA_OF_ASC_NODE":284.6047,"ARG_OF_PERICENTER":120.0921,"MEAN_ANOMALY":240.0085,"EPHEMERIS_TYPE":0,"NORAD_CAT_ID":63746,"ELEMENT_SET_NO":999,"REV_AT_EPOCH":6640,"BSTAR":0.000020280966,"MEAN_MOTION_DOT":-6.6e-7,"MEAN_MOTION_DDOT":0},{"OBJECT_NAME":"KUIPER-00034","OBJECT_ID":"2025-088Z","EPOCH":"2026-07-14T12:33:35.157312","CLASSIFICATION_TYPE":"U","MEAN_MOTION":14.79923682,"ECCENTRICITY":0.00005365,"INCLINATION":51.9007,"RA_OF_ASC_NODE":247.2574,"ARG_OF_PERICENTER":71.8929,"MEAN_ANOMALY":288.2092,"EPHEMERIS_TYPE":0,"NORAD_CAT_ID":63747,"ELEMENT_SET_NO":999,"REV_AT_EPOCH":6660,"BSTAR":0.000012555764,"MEAN_MOTION_DOT":-0.00000125,"MEAN_MOTION_DDOT":0},{"OBJECT_NAME":"KUIPER-00035","OBJECT_ID":"2025-088AA","EPOCH":"2026-07-14T11:54:44.849952","CLASSIFICATION_TYPE":"U","MEAN_MOTION":14.79932644,"ECCENTRICITY":0.0000366,"INCLINATION":51.9003,"RA_OF_ASC_NODE":272.3509,"ARG_OF_PERICENTER":98.8938,"MEAN_ANOMALY":261.2066,"EPHEMERIS_TYPE":0,"NORAD_CAT_ID":63748,"ELEMENT_SET_NO":999,"REV_AT_EPOCH":6630,"BSTAR":0.000098514,"MEAN_MOTION_DOT":0.0000053,"MEAN_MOTION_DDOT":0},{"OBJECT_NAME":"KUIPER-00037","OBJECT_ID":"2025-088AB","EPOCH":"2026-07-14T11:44:33.466272","CLASSIFICATION_TYPE":"U","MEAN_MOTION":14.79931778,"ECCENTRICITY":0.0000339,"INCLINATION":51.9019,"RA_OF_ASC_NODE":271.2403,"ARG_OF_PERICENTER":104.3009,"MEAN_ANOMALY":255.7991,"EPHEMERIS_TYPE":0,"NORAD_CAT_ID":63749,"ELEMENT_SET_NO":999,"REV_AT_EPOCH":6710,"BSTAR":-0.000082453,"MEAN_MOTION_DOT":-0.00000849,"MEAN_MOTION_DDOT":0},{"OBJECT_NAME":"KUIPER-00038","OBJECT_ID":"2025-088AC","EPOCH":"2026-07-14T13:06:39.921696","CLASSIFICATION_TYPE":"U","MEAN_MOTION":14.79941173,"ECCENTRICITY":0.0000336,"INCLINATION":51.9013,"RA_OF_ASC_NODE":257.1534,"ARG_OF_PERICENTER":82.1039,"MEAN_ANOMALY":277.9961,"EPHEMERIS_TYPE":0,"NORAD_CAT_ID":63750,"ELEMENT_SET_NO":999,"REV_AT_EPOCH":6630,"BSTAR":0.000099811,"MEAN_MOTION_DOT":0.0000054,"MEAN_MOTION_DDOT":0},{"OBJECT_NAME":"KUIPER-00039","OBJECT_ID":"2025-134A","EPOCH":"2026-07-14T20:33:22.953888","CLASSIFICATION_TYPE":"U","MEAN_MOTION":14.79933108,"ECCENTRICITY":0.00008286,"INCLINATION":51.9035,"RA_OF_ASC_NODE":30.7775,"ARG_OF_PERICENTER":127.6086,"MEAN_ANOMALY":232.4952,"EPHEMERIS_TYPE":0,"NORAD_CAT_ID":64500,"ELEMENT_SET_NO":999,"REV_AT_EPOCH":5890,"BSTAR":0.00026122016,"MEAN_MOTION_DOT":0.00001771,"MEAN_MOTION_DDOT":0},{"OBJECT_NAME":"KUIPER-00040","OBJECT_ID":"2025-134B","EPOCH":"2026-07-14T22:43:43.696128","CLASSIFICATION_TYPE":"U","MEAN_MOTION":14.7993417,"ECCENTRICITY":0.00008218,"INCLINATION":51.9001,"RA_OF_ASC_NODE":40.457,"ARG_OF_PERICENTER":128.0887,"MEAN_ANOMALY":232.015,"EPHEMERIS_TYPE":0,"NORAD_CAT_ID":64501,"ELEMENT_SET_NO":999,"REV_AT_EPOCH":5877,"BSTAR":0.0002657213,"MEAN_MOTION_DOT":0.00001805,"MEAN_MOTION_DDOT":0},{"OBJECT_NAME":"KUIPER-00041","OBJECT_ID":"2025-134C","EPOCH":"2026-07-14T18:36:42.552864","CLASSIFICATION_TYPE":"U","MEAN_MOTION":14.79936081,"ECCENTRICITY":0.00007496,"INCLINATION":51.9014,"RA_OF_ASC_NODE":43.6008,"ARG_OF_PERICENTER":109.2719,"MEAN_ANOMALY":250.8325,"EPHEMERIS_TYPE":0,"NORAD_CAT_ID":64502,"ELEMENT_SET_NO":999,"REV_AT_EPOCH":5871,"BSTAR":0.00024154654,"MEAN_MOTION_DOT":0.00001621,"MEAN_MOTION_DDOT":0},{"OBJECT_NAME":"KUIPER-00042","OBJECT_ID":"2025-134D","EPOCH":"2026-07-14T17:55:51.493728","CLASSIFICATION_TYPE":"U","MEAN_MOTION":14.79929564,"ECCENTRICITY":0.00008264,"INCLINATION":51.9001,"RA_OF_ASC_NODE":38.7049,"ARG_OF_PERICENTER":106.7268,"MEAN_ANOMALY":253.3785,"EPHEMERIS_TYPE":0,"NORAD_CAT_ID":64503,"ELEMENT_SET_NO":999,"REV_AT_EPOCH":5878,"BSTAR":0.00024955232,"MEAN_MOTION_DOT":0.00001682,"MEAN_MOTION_DDOT":0},{"OBJECT_NAME":"KUIPER-00043","OBJECT_ID":"2025-134E","EPOCH":"2026-07-14T18:07:29.901216","CLASSIFICATION_TYPE":"U","MEAN_MOTION":14.79936726,"ECCENTRICITY":0.00008158,"INCLINATION":51.9029,"RA_OF_ASC_NODE":31.167,"ARG_OF_PERICENTER":124.3811,"MEAN_ANOMALY":235.7229,"EPHEMERIS_TYPE":0,"NORAD_CAT_ID":64504,"ELEMENT_SET_NO":999,"REV_AT_EPOCH":5889,"BSTAR":0.0002381395,"MEAN_MOTION_DOT":0.00001595,"MEAN_MOTION_DDOT":0}]}
